{
  "type": "FeatureCollection",
  "features": [
    {
      "type": "Feature",
      "properties": {
        "norad_id": 67096,
        "name": "STARLINK-36228",
        "group": "last-30-days",
        "lat": 18.72526154324526,
        "lon": 26.811795505087215,
        "alt_km": 330.9469072349757,
        "timestamp": "2025-12-25T09:48:51.008703+00:00",
        "meta_object_name": "STARLINK-36228",
        "meta_object_id": "2025-298X",
        "meta_epoch": "2025-12-25T04:00:01.998720",
        "meta_mean_motion": 15.80992703,
        "meta_eccentricity": 0.0003454,
        "meta_inclination": 69.996,
        "meta_ra_of_asc_node": 214.5971,
        "meta_arg_of_pericenter": 270.4105,
        "meta_mean_anomaly": 311.6832,
        "meta_ephemeris_type": 0,
        "meta_classification_type": "U",
        "meta_norad_cat_id": 67096,
        "meta_element_set_no": 999,
        "meta_rev_at_epoch": 291,
        "meta_bstar": -0.010286,
        "meta_mean_motion_dot": -0.0173273,
        "meta_mean_motion_ddot": 0,
        "tle_line1": "1 67096U 25298X   25359.16668980 -.01732730  00000+0 -10286-1 0  9994",
        "tle_line2": "2 67096  69.9960 214.5971 0003454 270.4105 311.6832 15.80992703  2913"
      },
      "geometry": {
        "type": "Point",
        "coordinates": [
          26.811795505087215,
          18.72526154324526
        ]
      }
    },
    {
      "type": "Feature",
      "properties": {
        "norad_id": 67097,
        "name": "STARLINK-36222",
        "group": "last-30-days",
        "lat": 16.86347460566119,
        "lon": 27.562536503858126,
        "alt_km": 331.32696126129485,
        "timestamp": "2025-12-25T09:48:51.008715+00:00",
        "meta_object_name": "STARLINK-36222",
        "meta_object_id": "2025-298Y",
        "meta_epoch": "2025-12-25T04:00:01.998720",
        "meta_mean_motion": 15.80991651,
        "meta_eccentricity": 0.0003735,
        "meta_inclination": 69.9958,
        "meta_ra_of_asc_node": 214.5945,
        "meta_arg_of_pericenter": 272.5657,
        "meta_mean_anomaly": 311.5262,
        "meta_ephemeris_type": 0,
        "meta_classification_type": "U",
        "meta_norad_cat_id": 67097,
        "meta_element_set_no": 999,
        "meta_rev_at_epoch": 291,
        "meta_bstar": -0.010306,
        "meta_mean_motion_dot": -0.01735849,
        "meta_mean_motion_ddot": 0,
        "tle_line1": "1 67097U 25298Y   25359.16668980 -.01735849  00000+0 -10306-1 0  9992",
        "tle_line2": "2 67097  69.9958 214.5945 0003735 272.5657 311.5262 15.80991651  2916"
      },
      "geometry": {
        "type": "Point",
        "coordinates": [
          27.562536503858126,
          16.86347460566119
        ]
      }
    },
    {
      "type": "Feature",
      "properties": {
        "norad_id": 67098,
        "name": "STARLINK-36205",
        "group": "last-30-days",
        "lat": 14.849501441377898,
        "lon": 28.357363109348082,
        "alt_km": 331.6686186044644,
        "timestamp": "2025-12-25T09:48:51.008725+00:00",
        "meta_object_name": "STARLINK-36205",
        "meta_object_id": "2025-298Z",
        "meta_epoch": "2025-12-25T04:00:01.998720",
        "meta_mean_motion": 15.80984923,
        "meta_eccentricity": 0.0003581,
        "meta_inclination": 69.9958,
        "meta_ra_of_asc_node": 214.592,
        "meta_arg_of_pericenter": 275.5502,
        "meta_mean_anomaly": 310.7001,
        "meta_ephemeris_type": 0,
        "meta_classification_type": "U",
        "meta_norad_cat_id": 67098,
        "meta_element_set_no": 999,
        "meta_rev_at_epoch": 297,
        "meta_bstar": -0.010338,
        "meta_mean_motion_dot": -0.01776662,
        "meta_mean_motion_ddot": 0,
        "tle_line1": "1 67098U 25298Z   25359.16668980 -.01776662  00000+0 -10338-1 0  9996",
        "tle_line2": "2 67098  69.9958 214.5920 0003581 275.5502 310.7001 15.80984923  2973"
      },
      "geometry": {
        "type": "Point",
        "coordinates": [
          28.357363109348082,
          14.849501441377898
        ]
      }
    },
    {
      "type": "Feature",
      "properties": {
        "norad_id": 67099,
        "name": "STARLINK-36193",
        "group": "last-30-days",
        "lat": 15.677079969448185,
        "lon": 28.032762633240832,
        "alt_km": 336.56616702461906,
        "timestamp": "2025-12-25T09:48:51.008737+00:00",
        "meta_object_name": "STARLINK-36193",
        "meta_object_id": "2025-298AA",
        "meta_epoch": "2025-12-25T04:00:01.998720",
        "meta_mean_motion": 15.79484844,
        "meta_eccentricity": 0.0003477,
        "meta_inclination": 69.9959,
        "meta_ra_of_asc_node": 214.5912,
        "meta_arg_of_pericenter": 267.3686,
        "meta_mean_anomaly": 319.4715,
        "meta_ephemeris_type": 0,
        "meta_classification_type": "U",
        "meta_norad_cat_id": 67099,
        "meta_element_set_no": 999,
        "meta_rev_at_epoch": 291,
        "meta_bstar": -0.015583,
        "meta_mean_motion_dot": -0.02440892,
        "meta_mean_motion_ddot": 0,
        "tle_line1": "1 67099U 25298AA  25359.16668980 -.02440892  00000+0 -15583-1 0  9998",
        "tle_line2": "2 67099  69.9959 214.5912 0003477 267.3686 319.4715 15.79484844  2919"
      },
      "geometry": {
        "type": "Point",
        "coordinates": [
          28.032762633240832,
          15.677079969448185
        ]
      }
    },
    {
      "type": "Feature",
      "properties": {
        "norad_id": 67100,
        "name": "STARLINK-36215",
        "group": "last-30-days",
        "lat": 9.723525272498438,
        "lon": 30.31459574310248,
        "alt_km": 332.2418859869713,
        "timestamp": "2025-12-25T09:48:51.008747+00:00",
        "meta_object_name": "STARLINK-36215",
        "meta_object_id": "2025-298AB",
        "meta_epoch": "2025-12-25T04:00:01.998720",
        "meta_mean_motion": 15.80988534,
        "meta_eccentricity": 0.0003633,
        "meta_inclination": 69.9956,
        "meta_ra_of_asc_node": 214.5854,
        "meta_arg_of_pericenter": 276.1191,
        "meta_mean_anomaly": 315.5967,
        "meta_ephemeris_type": 0,
        "meta_classification_type": "U",
        "meta_norad_cat_id": 67100,
        "meta_element_set_no": 999,
        "meta_rev_at_epoch": 297,
        "meta_bstar": -0.010275,
        "meta_mean_motion_dot": -0.01730951,
        "meta_mean_motion_ddot": 0,
        "tle_line1": "1 67100U 25298AB  25359.16668980 -.01730951  00000+0 -10275-1 0  9991",
        "tle_line2": "2 67100  69.9956 214.5854 0003633 276.1191 315.5967 15.80988534  2976"
      },
      "geometry": {
        "type": "Point",
        "coordinates": [
          30.31459574310248,
          9.723525272498438
        ]
      }
    },
    {
      "type": "Feature",
      "properties": {
        "norad_id": 67101,
        "name": "STARLINK-36200",
        "group": "last-30-days",
        "lat": 13.196608812632382,
        "lon": 28.99808631670581,
        "alt_km": 331.6277375136842,
        "timestamp": "2025-12-25T09:48:51.008757+00:00",
        "meta_object_name": "STARLINK-36200",
        "meta_object_id": "2025-298AC",
        "meta_epoch": "2025-12-25T04:00:01.998720",
        "meta_mean_motion": 15.80988267,
        "meta_eccentricity": 0.0003724,
        "meta_inclination": 69.996,
        "meta_ra_of_asc_node": 214.5902,
        "meta_arg_of_pericenter": 269.8614,
        "meta_mean_anomaly": 318.1533,
        "meta_ephemeris_type": 0,
        "meta_classification_type": "U",
        "meta_norad_cat_id": 67101,
        "meta_element_set_no": 999,
        "meta_rev_at_epoch": 297,
        "meta_bstar": -0.010307,
        "meta_mean_motion_dot": -0.01735723,
        "meta_mean_motion_ddot": 0,
        "tle_line1": "1 67101U 25298AC  25359.16668980 -.01735723  00000+0 -10307-1 0  9990",
        "tle_line2": "2 67101  69.9960 214.5902 0003724 269.8614 318.1533 15.80988267  2977"
      },
      "geometry": {
        "type": "Point",
        "coordinates": [
          28.99808631670581,
          13.196608812632382
        ]
      }
    },
    {
      "type": "Feature",
      "properties": {
        "norad_id": 67102,
        "name": "STARLINK-36255",
        "group": "last-30-days",
        "lat": 26.141907025279977,
        "lon": -89.18678836408961,
        "alt_km": 318.2287811240885,
        "timestamp": "2025-12-25T09:48:51.008776+00:00",
        "meta_object_name": "STARLINK-36255",
        "meta_object_id": "2025-299A",
        "meta_epoch": "2025-12-25T04:00:01.998720",
        "meta_mean_motion": 15.84085087,
        "meta_eccentricity": 0.0001735,
        "meta_inclination": 42.9968,
        "meta_ra_of_asc_node": 240.5147,
        "meta_arg_of_pericenter": 274.591,
        "meta_mean_anomaly": 183.0403,
        "meta_ephemeris_type": 0,
        "meta_classification_type": "U",
        "meta_norad_cat_id": 67102,
        "meta_element_set_no": 999,
        "meta_rev_at_epoch": 280,
        "meta_bstar": -0.0085615,
        "meta_mean_motion_dot": -0.01721409,
        "meta_mean_motion_ddot": 0,
        "tle_line1": "1 67102U 25299A   25359.16668980 -.01721409  00000+0 -85615-2 0  9993",
        "tle_line2": "2 67102  42.9968 240.5147 0001735 274.5910 183.0403 15.84085087  2808"
      },
      "geometry": {
        "type": "Point",
        "coordinates": [
          -89.18678836408961,
          26.141907025279977
        ]
      }
    }
  ]
}